NUSAT-1 (FRESCO)        
1 41557U 16033B   22053.57998887  .00007938  00000+0  26117-3 0  9994
2 41557  97.3877 151.3894 0013328  68.9371  56.2108 15.31702761319780
BEESAT-4                
1 41619U 16040W   22053.42092377  .00008081  00000+0  29912-3 0  9990
2 41619  97.2353 107.3015 0010728 158.0387 202.1315 15.27869753303147
CAS-2T & KS-1Q          
1 41847U 16066G   22053.43393034  .00000598  00000+0  99961-4 0  9993
2 41847  98.5670 118.1678 0364496 193.6473 165.4652 14.38376119277815
NAYIF-1 (EO-88)         
1 42017U 17008BX  22053.13322403  .00010014  00000+0  33813-3 0  9996
2 42017  97.2843 121.1729 0004249 309.2556  50.8308 15.30863293279418
ZHUHAI-1 02 (CAS-4B)    
1 42759U 17034B   22053.58044645  .00002000  00000+0  13089-3 0  9995
2 42759  43.0169 245.3991 0009557 286.9187 131.8131 15.10939082258979
ZHUHAI-1 01 (CAS-4A)    
1 42761U 17034D   22053.49692322  .00001878  00000+0  12347-3 0  9997
2 42761  43.0165 244.7282 0009816 290.3489 161.2854 15.11022632258969
MAX VALIER SAT          
1 42778U 17036P   22053.56654954  .00004615  00000+0  18716-3 0  9992
2 42778  97.2235  98.6759 0011729  21.7357 338.4377 15.25046197259389
RADFXSAT (FOX-1B)       
1 43017U 17073E   22053.43885373  .00001935  00000+0  15229-3 0  9995
2 43017  97.6882 312.3284 0251293 203.8402 155.1009 14.80420476230092
FOX-1D (AO-92)          
1 43137U 18004AC  22053.43864882  .00006593  00000+0  25099-3 0  9996
2 43137  97.3799 129.7869 0009410  55.6686 304.5442 15.27037632228781
DIWATA-2B               
1 43678U 18084H   22053.57032111  .00000160  00000+0  21555-4 0  9999
2 43678  97.9503 185.6464 0009020 311.7049  48.3402 14.91926034180721
ES'HAIL 2               
1 43700U 18090A   22053.26407831  .00000146  00000+0  00000+0 0  9994
2 43700   0.0394 297.0633 0002434  68.6292 267.3055  1.00271850 11877
FOX-1CLIFF (AO-95)      
1 43770U 18099N   22053.41978800  .00001276  00000+0  11924-3 0  9992
2 43770  97.6357 122.7370 0013082 305.1203  54.8792 14.95802776175816
ITASAT 1                
1 43786U 18099AE  22053.42778996  .00000812  00000+0  77307-4 0  9997
2 43786  97.6380 123.5944 0013682 297.0696  62.9129 14.96033623175852
JY1SAT (JO-97)          
1 43803U 18099AX  22053.41084694  .00001962  00000+0  17799-3 0  9996
2 43803  97.6343 123.3153 0013378 296.2063  63.7783 14.96383201175868
UWE-4                   
1 43880U 18111E   22053.49215484  .00002465  00000+0  21662-3 0  9990
2 43880  97.6768 321.8256 0011817 355.7199   4.3920 14.97426763172492
NEXUS (FO-99)           
1 43937U 19003F   22053.06599216  .00007424  00000+0  27397-3 0  9996
2 43937  97.1470  91.0542 0021323 201.4839 158.5508 15.27834642172346
PSAT2 (NO-104)          
1 44354U 19036R   22052.88437404  .00058190  00000+0  65575-3 0  9991
2 44354  28.5233 251.1175 0278170 121.3678 241.4446 15.26280833146936
BRICSAT2 (NO-103)       
1 44355U 19036S   22053.58772973  .00183978  23052-5  10002-2 0  9998
2 44355  28.5213 140.6440 0140496 301.6910  57.0065 15.65627832148097
JAISAT-1                
1 44419U 19038F   22053.54326802  .00005046  00000+0  27048-3 0  9993
2 44419  97.6235  23.0218 0020742 164.2599 195.9283 15.15267475145643
DUCHIFAT-3              
1 44854U 19089C   22053.39363701  .00002261  00000+0  18377-3 0  9995
2 44854  36.9662  61.9722 0008401 358.5241   1.5476 15.00171662120642
CAS-6 (TO-108)          
1 44881U 19093C   22053.50133549  .00000354  00000+0  51789-4 0  9994
2 44881  97.9021 134.3359 0014449 195.2026 164.8756 14.81574140117753
RS-44 & BREEZE-KM R/B   
1 44909U 19096E   22053.41922558  .00000000  00000+0 -40325-4 0  9997
2 44909  82.5223 306.7201 0216498 228.5510 129.6820 12.79712004100790
ORBITAL FACTORY 2 (OF-2)
1 45113U 19071C   22053.30055478  .00012786  00000+0  32729-3 0  9995
2 45113  51.6399 263.3876 0011049 121.1477 239.0593 15.39710290115603
HUSKYSAT-1 (HO-107)     
1 45119U 19071J   22053.00251997  .00012619  00000+0  32655-3 0  9995
2 45119  51.6391 264.3820 0010607 116.6057 243.6016 15.39393579115555
BY70-2                  
1 45857U 20042B   22053.54541899  .00003835  00000+0  53534-3 0  9995
2 45857  97.9647 131.6063 0012217 126.5543 233.6790 14.78201297 88470
SALSAT                  
1 46495U 20068K   22053.54569974  .00001014  00000+0  77980-4 0  9995
2 46495  97.7193 354.9472 0015333 311.2520  48.7384 15.03914819 76917
BY70-3                  
1 46839U 20079N   22053.52190464  .00012939  00000+0  35780-3 0  9990
2 46839  97.2125 127.4882 0007304  38.8052  85.4906 15.37122422 72561
RADFXSAT-2 (AO-109)     
1 47311U 21002C   22053.47620177  .00004858  00000+0  21376-3 0  9993
2 47311  60.6853  74.3644 0020490 183.1672 176.9289 15.23260829 60935
UVSQ-SAT                
1 47438U 21006AB  22053.41572115  .00002932  00000+0  16389-3 0  9998
2 47438  97.4540 114.8235 0011248 319.6050  40.4346 15.14223657 59866
DIY-1 (ARDUIQUBE)       
1 47963U 21022AH  22053.22411714  .00007988  00000+0  49654-3 0  9992
2 47963  97.5418 316.1966 0018535 164.2664 195.9145 15.09771559 49543
XW-3 (CAS-9)            
1 50466U 21131B   22053.54000363  .00000067  00000+0  36540-4 0  9996
2 50466  98.5908 130.8131 0005784 125.8387 234.3340 14.38444111  8397
